[{"OBJECT_NAME":"NUSAT-49 (KLARA DAN VON NEUMANN)","OBJECT_ID":"2024-149AJ","EPOCH":"2026-03-09T19:09:16.004160","MEAN_MOTION":15.30828857,"ECCENTRICITY":0.00011321,"INCLINATION":97.3807,"RA_OF_ASC_NODE":150.738,"ARG_OF_PERICENTER":286.7761,"MEAN_ANOMALY":73.3356,"EPHEMERIS_TYPE":0,"CLASSIFICATION_TYPE":"U","NORAD_CAT_ID":60500,"ELEMENT_SET_NO":999,"REV_AT_EPOCH":8693,"BSTAR":0.00043568345,"MEAN_MOTION_DOT":0.00012912,"MEAN_MOTION_DDOT":0},{"OBJECT_NAME":"STARLINK-35210","OBJECT_ID":"2025-224X","EPOCH":"2026-03-09T23:30:50.938272","MEAN_MOTION":15.3023436,"ECCENTRICITY":9.022e-5,"INCLINATION":53.1604,"RA_OF_ASC_NODE":10.355,"ARG_OF_PERICENTER":74.192,"MEAN_ANOMALY":285.918,"EPHEMERIS_TYPE":0,"CLASSIFICATION_TYPE":"U","NORAD_CAT_ID":65903,"ELEMENT_SET_NO":999,"REV_AT_EPOCH":2489,"BSTAR":0.0016241912,"MEAN_MOTION_DOT":0.00048108,"MEAN_MOTION_DDOT":0}]
